satname,norad_id,inclination_deg,eccentricity,mean_motion_rev_per_day,perigee_km,apogee_km,l1,l2
STARLINK-1555,46032,53.0561,0.0001348,15.06398571,546.2824000449345,548.1494751969176,1 46032U 20055F   26053.82665441  .00001047  00000+0  89196-4 0  9997,2 46032  53.0561 193.3401 0001348  91.9740 268.1404 15.06398571306654
STARLINK-1556,46033,53.0561,0.0001246,15.06399935,546.3488586987814,548.0746556090635,1 46033U 20055G   26053.67552456  .00001081  00000+0  91465-4 0  9992,2 46033  53.0561 194.0194 0001246  89.3437 270.7695 15.06399935306604
STARLINK-1557,46034,53.0561,0.0001156,15.06375876,546.4849166700233,548.0860743509847,1 46034U 20055H   26053.67923965 -.00002022  00000+0 -11700-3 0  9991,2 46034  53.0561 194.0027 0001156  90.2383 269.8739 15.06375876306607
STARLINK-1558,46035,53.056,0.0001307,15.06412395,546.2684312175579,548.0787074003747,1 46035U 20055J   26053.81927543 -.00004128  00000+0 -25829-3 0  9990,2 46035  53.0560 193.3732 0001307  77.6623 282.4512 15.06412395306659
STARLINK-1560,46036,53.0558,0.0001213,15.06394693,546.3877764236295,548.0678699297314,1 46036U 20055K   26053.67184478  .00001353  00000+0  10973-3 0  9996,2 46036  53.0558 194.0363 0001213  83.2187 276.8940 15.06394693306639
STARLINK-1567,46038,53.056,0.0001258,15.06396394,546.3513995920484,548.0938200698811,1 46038U 20055M   26053.68291634  .00001692  00000+0  13247-3 0  9995,2 46038  53.0560 193.9878 0001258  95.1785 264.9347 15.06396394306626
STARLINK-1569,46039,53.0571,0.0001407,15.06391299,546.2638250842529,548.2126256726742,1 46039U 20055N   26053.69027448  .00000885  00000+0  78313-4 0  9996,2 46039  53.0571 193.9541 0001407  92.4837 267.6313 15.06391299306622
STARLINK-1582,46043,53.056,0.0001541,15.06432605,546.0444492977467,548.1788109255476,1 46043U 20055S   26053.76396717  .00004307  00000+0  30760-3 0  9993,2 46043  53.0560 193.6189 0001541  97.4456 262.6708 15.06432605306632
STARLINK-1591,46045,53.0562,0.0001345,15.06397491,546.2877872572762,548.1507080879001,1 46045U 20055U   26053.78980075 -.00000406  00000+0 -83829-5 0  9997,2 46045  53.0562 193.5059 0001345  90.7935 269.3208 15.06397491306622
STARLINK-1524,46047,53.1308,0.0001106,15.23803948,493.619196498219,495.1393971030702,1 46047U 20055W   26053.91668981  .00821628  00000+0  31057-1 0  9990,2 46047  53.1308 182.3079 0001106  84.9152 126.5540 15.23803948  5786
STARLINK-1527,46048,53.1271,0.0001548,15.22845224,496.1991278438045,498.3277518199766,1 46048U 20055X   26053.91668981  .01789835  00000+0  68810-1 0  9992,2 46048  53.1271 182.4278 0001548  84.7000  79.8872 15.22845224  5845
STARLINK-1540,46051,53.126,0.0001407,15.23188542,495.26306020754237,497.1975071611705,1 46051U 20055AA  26053.91668981  .01136890  00000+0  43764-1 0  9994,2 46051  53.1260 182.3095 0001407  61.6348 349.1451 15.23188542  5846
STARLINK-1541,46052,53.1186,0.0001543,15.21593925,499.9708401768785,502.0937518216242,1 46052U 20055AB  26053.91668981  .00090356  00000+0  39200-2 0  9991,2 46052  53.1186 182.2366 0001543  91.8946  79.5092 15.21593925  5842
STARLINK-1543,46053,53.1227,0.0001593,15.22246154,497.97162877662413,500.16270602435725,1 46053U 20055AC  26053.91668981  .01128106  00000+0  44675-1 0  9999,2 46053  53.1227 182.3519 0001593  69.6750  18.3665 15.22246154  5781
STARLINK-1548,46054,53.1214,0.0001113,15.21943738,499.21262073782054,500.74368917131324,1 46054U 20055AD  26053.91668981  .01056026  00000+0  42414-1 0  9990,2 46054  53.1214 182.3323 0001113  66.0948 352.0943 15.21943738  5844
STARLINK-1554,46055,53.1161,0.0001322,15.20445805,503.58504481815453,505.4048127001188,1 46055U 20055AE  26053.91668981  .00613619  00000+0  25853-1 0  9995,2 46055  53.1161 182.3744 0001322  75.4164  39.5568 15.20445805  5840
STARLINK-1564,46058,53.1219,0.0001025,15.22001701,499.0985369338523,500.50851474164847,1 46058U 20055AH  26053.91668981  .01097203  00000+0  43860-1 0  9992,2 46058  53.1219 182.8118 0001025  58.4894  10.5837 15.22001701  5739
STARLINK-1570,46059,53.1274,8.66e-05,15.23242734,495.4719316111159,496.6625437850853,1 46059U 20055AJ  26053.91668981  .01710901  00000+0  65276-1 0  9995,2 46059  53.1274 182.4171 0000866 103.7306 127.7715 15.23242734  5785
STARLINK-1572,46060,53.1152,0.0001166,15.20523143,503.45905935063547,505.06403469180077,1 46060U 20055AK  26053.91668981  .01022448  00000+0  42907-1 0  9995,2 46060  53.1152 182.4278 0001166 112.3113 133.4212 15.20523143  5842
STARLINK-1573,46061,53.1304,0.0001173,15.2370703,493.8645388263931,495.4768995173108,1 46061U 20055AL  26053.91668981  .01736401  00000+0  65262-1 0  9996,2 46061  53.1304 182.4042 0001173  61.4141 238.2619 15.23707030  5627
STARLINK-1577,46063,53.1316,0.0001005,15.23965856,493.2018861786355,494.5831641131899,1 46063U 20055AN  26053.91668981  .01702621  00000+0  63617-1 0  9997,2 46063  53.1316 182.3483 0001005 112.5156  56.1712 15.23965856  5845
STARLINK-1583,46064,53.1307,9.72e-05,15.239139,493.3807434926093,494.71669639656557,1 46064U 20055AP  26053.91668981  .01749504  00000+0  65307-1 0  9997,2 46064  53.1307 182.3666 0000972  72.7979 266.9653 15.23913900  5849
STARLINK-1525,46066,53.0553,0.0001167,15.06398234,546.4087816708607,548.0251592875693,1 46066U 20055AR  26053.71147565 -.00000418  00000+0 -92076-5 0  9999,2 46066  53.0553 163.8571 0001167  99.3009 260.8112 15.06398234307046
STARLINK-1536,46070,53.056,0.0001528,15.06374763,546.2307017097937,548.3471118669077,1 46070U 20055AV  26053.62303132 -.00001883  00000+0 -10763-3 0  9996,2 46070  53.0560 164.2562 0001528  89.3175 270.7989 15.06374763307041
STARLINK-1542,46073,53.0526,0.0001347,15.06430914,546.1839809124358,548.049644289551,1 46073U 20055AY  26053.81464659  .00007307  00000+0  50848-3 0  9995,2 46073  53.0526 163.3942 0001347  87.0917 273.0226 15.06430914307069
STARLINK-1549,46074,53.0556,0.0001376,15.06387764,546.2961266479933,548.2019928916407,1 46074U 20055AZ  26053.73358091  .00001135  00000+0  95099-4 0  9990,2 46074  53.0556 163.7588 0001376  98.2392 261.8753 15.06387764307048
STARLINK-1551,46075,53.0535,0.0001248,15.06391675,546.3727862974547,548.1013596660714,1 46075U 20055BA  26053.62669515  .00000133  00000+0  27832-4 0  9992,2 46075  53.0535 164.2393 0001248  90.2733 269.8399 15.06391675307034
STARLINK-1552,46076,53.0556,0.0001385,15.06395358,546.2666222905136,548.1849477819687,1 46076U 20055BB  26053.78518388 -.00000190  00000+0  61566-5 0  9998,2 46076  53.0556 163.5280 0001385  95.5850 264.5297 15.06395358307047
